     2.100          NAVIGATION                              RINEX VERSION / TYPE
fic2rin                                 05/31/2013 00:57:51 PGM / RUN BY / DATE
                                                            END OF HEADER
17 13  5 30  1 59 28.0  .143549405038D-04 -.409272615798D-11  .000000000000D+00
     .190000000000D+02 -.930937500000D+02  .446018578464D-08 -.235520904370D+01
    -.475533306599D-05  .834558310453D-02  .872649252415D-05  .515363746262D+04
     .352768000000D+06  .137835741043D-06 -.247417108128D+01 -.670552253723D-07
     .965586677064D+00  .211875000000D+03 -.219173975702D+01 -.791032949697D-08
     .207151485834D-10  .100000000000D+01  .174200000000D+04  .000000000000D+00
     .240000000000D+01  .000000000000D+00 -.102445483208D-07  .190000000000D+02
     .345606000000D+06  .400000000000D+01
30 13  5 30  1 59 28.0 -.174463260919D-03  .113686837722D-11  .000000000000D+00
     .200000000000D+01 -.280937500000D+02  .570738059245D-08 -.140380244621D+01
    -.134669244289D-05  .627885106951D-02  .297650694847D-05  .515367264175D+04
     .352768000000D+06  .100582838058D-06  .273271803988D+01 -.204890966415D-07
     .977951069027D+00  .327093750000D+03  .856958584542D+00 -.827998775187D-08
     .142505935944D-09  .100000000000D+01  .174200000000D+04  .000000000000D+00
     .240000000000D+01  .630000000000D+02 -.190921127796D-07  .200000000000D+01
     .345606000000D+06  .400000000000D+01
 7 13  5 30  1 59 44.0  .219362322241D-03  .420641299570D-11  .000000000000D+00
     .220000000000D+02  .739062500000D+02  .404016828923D-08  .117204023760D+01
     .389851629734D-05  .639227381907D-02  .813789665699D-05  .515369402504D+04
     .352784000000D+06 -.353902578354D-07  .169523002470D+01  .968575477600D-07
     .975196258233D+00  .229687500000D+03 -.293768808883D+01 -.797568936233D-08
     .184293390845D-09  .100000000000D+01  .174200000000D+04  .000000000000D+00
     .240000000000D+01  .000000000000D+00 -.107102096081D-07  .220000000000D+02
     .345606000000D+06  .400000000000D+01
20 13  5 30  1 59 44.0  .100721139461D-03  .204636307899D-11  .000000000000D+00
     .140000000000D+02  .205937500000D+02  .570273754191D-08 -.341184678820D+00
     .107474625111D-05  .539974821731D-02  .588409602642D-05  .515372992516D+04
     .352784000000D+06 -.540167093277D-07 -.472557706691D+00  .353902578354D-07
     .928139643233D+00  .247000000000D+03  .129728469641D+01 -.876786521678D-08
    -.103575742917D-09  .100000000000D+01  .174200000000D+04  .000000000000D+00
     .240000000000D+01  .000000000000D+00 -.791624188423D-08  .140000000000D+02
     .345606000000D+06  .400000000000D+01
 1 13  5 30  2  0  0.0  .315997749567D-04  .432009983342D-11  .000000000000D+00
     .940000000000D+02  .225000000000D+01  .463876465174D-08  .181168558622D+01
     .275671482086D-06  .189499533735D-02  .105910003185D-04  .515370066071D+04
     .352800000000D+06  .260770320892D-07 -.146537454109D+01  .137835741043D-06
     .959848465747D+00  .173687500000D+03  .255929757187D+00 -.804104922769D-08
     .331799535068D-09  .100000000000D+01  .174200000000D+04  .000000000000D+00
     .240000000000D+01  .000000000000D+00  .838190317154D-08  .940000000000D+02
     .345606000000D+06  .400000000000D+01
 2 13  5 30  2  0  0.0  .434564426541D-03  .181898940355D-11  .000000000000D+00
     .410000000000D+02  .690625000000D+01  .496592113626D-08  .254634615038D+01
     .195577740669D-06  .123923646752D-01  .992603600025D-05  .515366869736D+04
     .352800000000D+06 -.175088644028D-06 -.148708799923D+01 -.201165676117D-06
     .938364622836D+00  .177093750000D+03 -.259535727221D+01 -.804497796277D-08
     .229652423088D-09  .100000000000D+01  .174200000000D+04  .000000000000D+00
     .240000000000D+01  .000000000000D+00 -.176951289177D-07  .410000000000D+02
     .345606000000D+06  .400000000000D+01
 3 13  5 30  2  0  0.0  .213475897908D-03  .500222085975D-11  .000000000000D+00
     .170000000000D+02 -.119968750000D+03  .517057251796D-08  .272381741368D+01
    -.624544918537D-05  .162688655546D-01  .777281820774D-05  .515370042610D+04
     .352800000000D+06  .156462192535D-06 -.265684420185D+01 -.169500708580D-06
     .934732462033D+00  .213750000000D+03  .129016856694D+01 -.816141138411D-08
    -.181793286706D-09  .100000000000D+01  .174200000000D+04  .000000000000D+00
     .240000000000D+01  .000000000000D+00 -.465661287308D-08  .170000000000D+02
     .345606000000D+06  .400000000000D+01
 4 13  5 30  2  0  0.0  .231643673033D-03  .103455022327D-10  .000000000000D+00
     .720000000000D+02  .115937500000D+02  .518485882732D-08 -.539299812573D+00
     .704079866409D-06  .102980823722D-01  .956654548645D-05  .515379494476D+04
     .352800000000D+06 -.409781932831D-07 -.147062749224D+01  .130385160446D-06
     .937398305465D+00  .182781250000D+03  .980882889984D+00 -.843820862812D-08
     .200008331150D-09  .100000000000D+01  .174200000000D+04  .000000000000D+00
     .240000000000D+01  .000000000000D+00 -.605359673500D-08  .720000000000D+02
     .345606000000D+06  .400000000000D+01
 5 13  5 30  2  0  0.0 -.395853538066D-03 -.909494701773D-12  .000000000000D+00
     .940000000000D+02  .190937500000D+02  .506378235543D-08 -.152131577503D+01
     .101700425148D-05  .304088951088D-02  .597164034843D-05  .515362034798D+04
     .352800000000D+06  .167638063431D-07 -.421666312346D+00 -.204890966415D-07
     .948819342020D+00  .259343750000D+03  .266528262201D+00 -.835070498324D-08
    -.130362572982D-09  .100000000000D+01  .174200000000D+04  .000000000000D+00
     .240000000000D+01  .000000000000D+00 -.102445483208D-07  .940000000000D+02
     .345606000000D+06  .400000000000D+01
 6 13  5 30  2  0  0.0  .210498459637D-03 -.165982783074D-10  .000000000000D+00
     .810000000000D+02 -.102718750000D+03  .503913847177D-08 -.172214771882D+01
    -.548735260963D-05  .807870866265D-02  .911392271519D-05  .515368477821D+04
     .352800000000D+06 -.428408384323D-07 -.257738657294D+01 -.139698386192D-06
     .941320538053D+00  .194656250000D+03 -.312914530100D+00 -.839177812267D-08
    -.342871424828D-10  .100000000000D+01  .174200000000D+04  .000000000000D+00
     .340000000000D+01  .000000000000D+00 -.512227416039D-08  .810000000000D+02
     .345606000000D+06  .400000000000D+01
 8 13  5 30  2  0  0.0  .644242390990D-05  .227373675443D-12  .000000000000D+00
     .100000000000D+03  .600000000000D+02  .364193741560D-08  .614877270712D+00
     .328198075294D-05  .129454882117D-01  .739842653275D-05  .515372191048D+04
     .352800000000D+06  .949949026108D-07  .178659264394D+01  .240281224251D-06
     .997921975227D+00  .256375000000D+03 -.287543902862D+01 -.783675500373D-08
     .236795577772D-09  .100000000000D+01  .174200000000D+04  .000000000000D+00
     .340000000000D+01  .000000000000D+00 -.419095158577D-08  .100000000000D+03
     .345606000000D+06  .400000000000D+01
 9 13  5 30  2  0  0.0  .244286376983D-03  .261479726760D-11  .000000000000D+00
     .101000000000D+03  .571875000000D+02  .378301472060D-08  .186878413758D+01
     .282377004623D-05  .174338557990D-01  .786036252975D-05  .515278542900D+04
     .352800000000D+06  .305473804474D-06  .167201690290D+01 -.247731804848D-06
     .983826667370D+00  .235343750000D+03  .166549859637D+01 -.766389066038D-08
     .235009789101D-09  .100000000000D+01  .174200000000D+04  .000000000000D+00
     .340000000000D+01  .000000000000D+00 -.558793544769D-08  .101000000000D+03
     .345606000000D+06  .400000000000D+01
10 13  5 30  2  0  0.0 -.816369429231D-04 -.136424205266D-11  .000000000000D+00
     .740000000000D+02  .196875000000D+02  .516521515194D-08 -.129709984647D+01
     .106729567051D-05  .124120390974D-01  .564754009247D-05  .515363208580D+04
     .352800000000D+06  .311061739922D-06 -.402252703325D+00  .502914190292D-07
     .943660807603D+00  .260687500000D+03  .802460743105D+00 -.837106297409D-08
    -.160720980388D-09  .100000000000D+01  .174200000000D+04  .000000000000D+00
     .240000000000D+01  .000000000000D+00 -.279396772385D-08  .740000000000D+02
     .345606000000D+06  .400000000000D+01
11 13  5 30  2  0  0.0 -.386679079384D-03 -.363797880709D-11  .000000000000D+00
     .550000000000D+02 -.320937500000D+02  .623383109266D-08  .137591507732D+01
    -.164285302162D-05  .139919628855D-01  .112559646368D-04  .515369326210D+04
     .352800000000D+06 -.348314642906D-06 -.176262611348D+01 -.540167093277D-07
     .888633359101D+00  .127843750000D+03  .116815142976D+01 -.893394356318D-08
     .235366946835D-09  .100000000000D+01  .174200000000D+04  .000000000000D+00
     .240000000000D+01  .000000000000D+00 -.116415321827D-07  .550000000000D+02
     .345606000000D+06  .400000000000D+01
12 13  5 30  2  0  0.0  .136512797326D-03  .204636307899D-11  .000000000000D+00
     .270000000000D+02 -.231562500000D+02  .431053669401D-08  .859003297827D+00
    -.133365392685D-05  .452722923364D-02  .358931720257D-05  .515356205559D+04
     .352800000000D+06  .558793544769D-07  .275436342698D+01  .558793544769D-07
     .984310492414D+00  .326218750000D+03  .267367823572D+00 -.818712674098D-08
     .446447167745D-10  .100000000000D+01  .174200000000D+04  .000000000000D+00
     .240000000000D+01  .000000000000D+00 -.121071934700D-07  .270000000000D+02
     .345606000000D+06  .400000000000D+01
13 13  5 30  2  0  0.0  .114481430501D-03 -.363797880709D-11  .000000000000D+00
     .850000000000D+02  .126562500000D+02  .383908848487D-08 -.272583428178D+01
     .687316060066D-06  .517428515013D-02  .100191682577D-04  .515375219154D+04
     .352800000000D+06  .614672899246D-07  .727861848425D+00 -.372529029846D-08
     .981757470688D+00  .197625000000D+03  .212604210589D+01 -.766139055624D-08
    -.437518224390D-09  .100000000000D+01  .174200000000D+04  .000000000000D+00
     .240000000000D+01  .000000000000D+00 -.111758708954D-07  .850000000000D+02
     .345606000000D+06  .400000000000D+01
